ONEWEB-0363             
1 49289U 21090L   24289.70125594  .00000050  00000+0  90346-4 0  9992
2 49289  87.9285  35.6756 0001386 111.3933 248.7349 13.20767458149851
ONEWEB-0364             
1 49290U 21090M   24289.73912739  .00000059  00000+0  11394-3 0  9996
2 49290  87.9288  35.6949 0001737 104.5897 255.5429 13.20773241150992
ONEWEB-0365             
1 49291U 21090N   24290.15041185 -.00000031  00000+0 -10970-3 0  9994
2 49291  87.9141  66.0777 0001797  96.2788 263.8549 13.19727063147383
ONEWEB-0366             
1 49292U 21090P   24289.58021985  .00000132  00000+0  32250-3 0  9991
2 49292  87.9005  50.9369 0001681 101.1522 258.9797 13.14502717148772
ONEWEB-0367             
1 49293U 21090Q   24289.69966886 -.00000353  00000+0 -90031-3 0  9990
2 49293  87.9284  35.6704 0001865 102.4680 257.6662 13.20772761149377
ONEWEB-0368             
1 49294U 21090R   24289.59708694  .00000011  00000+0 -48586-5 0  9991
2 49294  87.9288  35.7222 0002212 125.0428 235.0913 13.20771975151813
ONEWEB-0369             
1 49295U 21090S   24290.14567452 -.00000074  00000+0 -21701-3 0  9998
2 49295  87.9150  66.0899 0001716  96.4703 263.6625 13.19728312147372
ONEWEB-0370             
1 49296U 21090T   24289.55762663  .00000081  00000+0  16801-3 0  9994
2 49296  87.9284  35.7036 0001800  88.9794 271.1545 13.20772519150691
